AEROCUBE 7              
1 40966U 15058C   26068.71738146  .00005894  00000+0  47977-3 0  9995
2 40966  64.7631 196.1788 0120607 101.5653 259.9029 14.94898912351089
STARLINK-5503           
1 57257U 23094AR  26068.25332369 -.00000545  00000+0 -25292-4 0  9998
2 57257  43.0046  19.7489 0001355 265.0344  95.0344 15.02537201147868
